[
    {
        "OBJECT_NAME": "COSMOS 2219",
        "OBJECT_ID": "1992-076A",
        "EPOCH": "2026-06-06T19:00:44.015904",
        "MEAN_MOTION": 14.14095586,
        "ECCENTRICITY": 0.00161205,
        "INCLINATION": 71.0578,
        "RA_OF_ASC_NODE": 191.8031,
        "ARG_OF_PERICENTER": 61.1295,
        "MEAN_ANOMALY": 299.1443,
        "EPHEMERIS_TYPE": 0,
        "CLASSIFICATION_TYPE": "U",
        "NORAD_CAT_ID": 22219,
        "ELEMENT_SET_NO": 999,
        "REV_AT_EPOCH": 73097,
        "BSTAR": -1.7357216e-05,
        "MEAN_MOTION_DOT": -8e-07,
        "MEAN_MOTION_DDOT": 0
    },
    {
        "OBJECT_NAME": "SL-16 R/B",
        "OBJECT_ID": "1992-076B",
        "EPOCH": "2026-06-06T20:29:23.986176",
        "MEAN_MOTION": 14.16872419,
        "ECCENTRICITY": 0.00144087,
        "INCLINATION": 71.0008,
        "RA_OF_ASC_NODE": 0.5502,
        "ARG_OF_PERICENTER": 312.2124,
        "MEAN_ANOMALY": 58.5731,
        "EPHEMERIS_TYPE": 0,
        "CLASSIFICATION_TYPE": "U",
        "NORAD_CAT_ID": 22220,
        "ELEMENT_SET_NO": 999,
        "REV_AT_EPOCH": 73446,
        "BSTAR": -7.2692533e-05,
        "MEAN_MOTION_DOT": -1.94e-06,
        "MEAN_MOTION_DDOT": 0
    },
    {
        "OBJECT_NAME": "COSMOS 2221",
        "OBJECT_ID": "1992-080A",
        "EPOCH": "2026-06-06T20:12:32.065920",
        "MEAN_MOTION": 14.96507463,
        "ECCENTRICITY": 0.00126408,
        "INCLINATION": 82.5036,
        "RA_OF_ASC_NODE": 193.676,
        "ARG_OF_PERICENTER": 250.4312,
        "MEAN_ANOMALY": 109.5545,
        "EPHEMERIS_TYPE": 0,
        "CLASSIFICATION_TYPE": "U",
        "NORAD_CAT_ID": 22236,
        "ELEMENT_SET_NO": 999,
        "REV_AT_EPOCH": 79412,
        "BSTAR": 0.00012771451,
        "MEAN_MOTION_DOT": 1.478e-05,
        "MEAN_MOTION_DDOT": 0
    },
    {
        "OBJECT_NAME": "SL-16 R/B",
        "OBJECT_ID": "1992-093B",
        "EPOCH": "2026-06-06T18:48:03.256992",
        "MEAN_MOTION": 14.15464998,
        "ECCENTRICITY": 0.00045258,
        "INCLINATION": 71.0202,
        "RA_OF_ASC_NODE": 177.232,
        "ARG_OF_PERICENTER": 202.6785,
        "MEAN_ANOMALY": 157.4139,
        "EPHEMERIS_TYPE": 0,
        "CLASSIFICATION_TYPE": "U",
        "NORAD_CAT_ID": 22285,
        "ELEMENT_SET_NO": 999,
        "REV_AT_EPOCH": 72576,
        "BSTAR": -9.434274e-06,
        "MEAN_MOTION_DOT": -6.6e-07,
        "MEAN_MOTION_DDOT": 0
    },
    {
        "OBJECT_NAME": "COSMOS 2228",
        "OBJECT_ID": "1992-094A",
        "EPOCH": "2026-06-06T20:45:14.780160",
        "MEAN_MOTION": 14.97549576,
        "ECCENTRICITY": 0.00179248,
        "INCLINATION": 82.517,
        "RA_OF_ASC_NODE": 151.9303,
        "ARG_OF_PERICENTER": 7.7517,
        "MEAN_ANOMALY": 352.3979,
        "EPHEMERIS_TYPE": 0,
        "CLASSIFICATION_TYPE": "U",
        "NORAD_CAT_ID": 22286,
        "ELEMENT_SET_NO": 999,
        "REV_AT_EPOCH": 78940,
        "BSTAR": 0.00021997968,
        "MEAN_MOTION_DOT": 2.6e-05,
        "MEAN_MOTION_DDOT": 0
    },
    {
        "OBJECT_NAME": "SL-16 R/B",
        "OBJECT_ID": "1993-016B",
        "EPOCH": "2026-06-06T14:54:12.576096",
        "MEAN_MOTION": 14.15308578,
        "ECCENTRICITY": 0.00109011,
        "INCLINATION": 71.008,
        "RA_OF_ASC_NODE": 28.4009,
        "ARG_OF_PERICENTER": 198.9571,
        "MEAN_ANOMALY": 161.1148,
        "EPHEMERIS_TYPE": 0,
        "CLASSIFICATION_TYPE": "U",
        "NORAD_CAT_ID": 22566,
        "ELEMENT_SET_NO": 999,
        "REV_AT_EPOCH": 71475,
        "BSTAR": 2.8809422e-05,
        "MEAN_MOTION_DOT": 8e-08,
        "MEAN_MOTION_DDOT": 0
    },
    {
        "OBJECT_NAME": "COSMOS 2242",
        "OBJECT_ID": "1993-024A",
        "EPOCH": "2026-06-06T19:40:05.625984",
        "MEAN_MOTION": 14.96872747,
        "ECCENTRICITY": 0.00163776,
        "INCLINATION": 82.518,
        "RA_OF_ASC_NODE": 181.4619,
        "ARG_OF_PERICENTER": 11.7198,
        "MEAN_ANOMALY": 348.4402,
        "EPHEMERIS_TYPE": 0,
        "CLASSIFICATION_TYPE": "U",
        "NORAD_CAT_ID": 22626,
        "ELEMENT_SET_NO": 999,
        "REV_AT_EPOCH": 79372,
        "BSTAR": 0.00014792129,
        "MEAN_MOTION_DOT": 1.726e-05,
        "MEAN_MOTION_DDOT": 0
    },
    {
        "OBJECT_NAME": "SL-16 R/B",
        "OBJECT_ID": "1993-059B",
        "EPOCH": "2026-06-06T18:16:50.280384",
        "MEAN_MOTION": 14.17243789,
        "ECCENTRICITY": 0.00149626,
        "INCLINATION": 70.9883,
        "RA_OF_ASC_NODE": 183.2895,
        "ARG_OF_PERICENTER": 72.1841,
        "MEAN_ANOMALY": 288.0914,
        "EPHEMERIS_TYPE": 0,
        "CLASSIFICATION_TYPE": "U",
        "NORAD_CAT_ID": 22803,
        "ELEMENT_SET_NO": 999,
        "REV_AT_EPOCH": 69215,
        "BSTAR": 7.9483334e-05,
        "MEAN_MOTION_DOT": 1.13e-06,
        "MEAN_MOTION_DDOT": 0
    },
    {
        "OBJECT_NAME": "ARIANE 40 R/B",
        "OBJECT_ID": "1993-061H",
        "EPOCH": "2026-06-06T22:34:31.558656",
        "MEAN_MOTION": 14.32903576,
        "ECCENTRICITY": 0.00111094,
        "INCLINATION": 98.4821,
        "RA_OF_ASC_NODE": 225.0103,
        "ARG_OF_PERICENTER": 26.4411,
        "MEAN_ANOMALY": 333.7338,
        "EPHEMERIS_TYPE": 0,
        "CLASSIFICATION_TYPE": "U",
        "NORAD_CAT_ID": 22830,
        "ELEMENT_SET_NO": 999,
        "REV_AT_EPOCH": 70688,
        "BSTAR": 9.3062375e-05,
        "MEAN_MOTION_DOT": 2.11e-06,
        "MEAN_MOTION_DDOT": 0
    },
    {
        "OBJECT_NAME": "COSMOS 2278",
        "OBJECT_ID": "1994-023A",
        "EPOCH": "2026-06-06T18:43:06.825504",
        "MEAN_MOTION": 14.143917,
        "ECCENTRICITY": 0.0010627,
        "INCLINATION": 71.054,
        "RA_OF_ASC_NODE": 348.701,
        "ARG_OF_PERICENTER": 254.965,
        "MEAN_ANOMALY": 105.0297,
        "EPHEMERIS_TYPE": 0,
        "CLASSIFICATION_TYPE": "U",
        "NORAD_CAT_ID": 23087,
        "ELEMENT_SET_NO": 999,
        "REV_AT_EPOCH": 65740,
        "BSTAR": 0.00022639432,
        "MEAN_MOTION_DOT": 3.86e-06,
        "MEAN_MOTION_DDOT": 0
    },
    {
        "OBJECT_NAME": "SL-16 R/B",
        "OBJECT_ID": "1994-023B",
        "EPOCH": "2026-06-06T15:28:43.506336",
        "MEAN_MOTION": 14.15018806,
        "ECCENTRICITY": 0.00034343,
        "INCLINATION": 70.9996,
        "RA_OF_ASC_NODE": 244.0707,
        "ARG_OF_PERICENTER": 198.1009,
        "MEAN_ANOMALY": 161.9992,
        "EPHEMERIS_TYPE": 0,
        "CLASSIFICATION_TYPE": "U",
        "NORAD_CAT_ID": 23088,
        "ELEMENT_SET_NO": 999,
        "REV_AT_EPOCH": 65867,
        "BSTAR": 8.7263505e-05,
        "MEAN_MOTION_DOT": 1.21e-06,
        "MEAN_MOTION_DDOT": 0
    },
    {
        "OBJECT_NAME": "SL-16 R/B",
        "OBJECT_ID": "1994-074B",
        "EPOCH": "2026-06-06T19:41:48.041952",
        "MEAN_MOTION": 14.79493712,
        "ECCENTRICITY": 0.00052065,
        "INCLINATION": 97.6995,
        "RA_OF_ASC_NODE": 184.9733,
        "ARG_OF_PERICENTER": 297.007,
        "MEAN_ANOMALY": 236.1991,
        "EPHEMERIS_TYPE": 0,
        "CLASSIFICATION_TYPE": "U",
        "NORAD_CAT_ID": 23343,
        "ELEMENT_SET_NO": 999,
        "REV_AT_EPOCH": 70042,
        "BSTAR": 6.8872018e-05,
        "MEAN_MOTION_DOT": 4.66e-06,
        "MEAN_MOTION_DDOT": 0
    },
    {
        "OBJECT_NAME": "SL-16 R/B",
        "OBJECT_ID": "1994-077B",
        "EPOCH": "2026-06-06T17:35:43.760832",
        "MEAN_MOTION": 14.1557411,
        "ECCENTRICITY": 0.00025923,
        "INCLINATION": 70.9807,
        "RA_OF_ASC_NODE": 165.1562,
        "ARG_OF_PERICENTER": 333.8707,
        "MEAN_ANOMALY": 26.2285,
        "EPHEMERIS_TYPE": 0,
        "CLASSIFICATION_TYPE": "U",
        "NORAD_CAT_ID": 23405,
        "ELEMENT_SET_NO": 999,
        "REV_AT_EPOCH": 62883,
        "BSTAR": -0.00012734012,
        "MEAN_MOTION_DOT": -2.97e-06,
        "MEAN_MOTION_DDOT": 0
    }
]